{"type": "FeatureCollection", "features": [ {"type": "Feature", "properties": {"norad_id": 33841, "name": "COSMOS 2251 DEB", "group": "cosmos-2251-debris", "lat": 40.232230478771996, "lon": -49.23473067953242, "alt_km": 748.9364102001973, "timestamp": "2025-12-02T13:52:17.654080+00:00", "meta": {"OBJECT_NAME": "COSMOS 2251 DEB", "OBJECT_ID": "1993-036CJ", "EPOCH": "2025-12-02T07:41:46.044384", "MEAN_MOTION": 14.37833942, "ECCENTRICITY": 0.00200649, "INCLINATION": 74.0372, "RA_OF_ASC_NODE": 297.2249, "ARG_OF_PERICENTER": 20.066, "MEAN_ANOMALY": 130.7792, "EPHEMERIS_TYPE": 0, "CLASSIFICATION_TYPE": "U", "NORAD_CAT_ID": 33841, "ELEMENT_SET_NO": 999, "REV_AT_EPOCH": 87964, "BSTAR": 0.000338817, "MEAN_MOTION_DOT": 9.98e-06, "MEAN_MOTION_DDOT": 0}, "tle": {"line1": "1 33841U 93036CJ  25336.32067181  .00000998  00000+0  33882-3 0  9999", "line2": "2 33841  74.0372 297.2249 0020064  20.0660 130.7792 14.37833942879642"}}, "geometry": {"type": "Point", "coordinates": [-49.23473067953242, 40.232230478771996]}}, {"type": "Feature", "properties": {"norad_id": 33842, "name": "COSMOS 2251 DEB", "group": "cosmos-2251-debris", "lat": 55.7171735892849, "lon": 33.67966428535842, "alt_km": 766.6867713987631, "timestamp": "2025-12-02T13:52:17.654091+00:00", "meta": {"OBJECT_NAME": "COSMOS 2251 DEB", "OBJECT_ID": "1993-036CK", "EPOCH": "2025-12-02T03:19:47.645760", "MEAN_MOTION": 14.42658874, "ECCENTRICITY": 0.00469257, "INCLINATION": 74.0335, "RA_OF_ASC_NODE": 239.3272, "ARG_OF_PERICENTER": 348.8425, "MEAN_ANOMALY": 11.1686, "EPHEMERIS_TYPE": 0, "CLASSIFICATION_TYPE": "U", "NORAD_CAT_ID": 33842, "ELEMENT_SET_NO": 999, "REV_AT_EPOCH": 88184, "BSTAR": 0.0003916308, "MEAN_MOTION_DOT": 1.293e-05, "MEAN_MOTION_DDOT": 0}, "tle": {"line1": "1 33842U 93036CK  25336.13874590  .00001293  00000+0  39163-3 0  9996", "line2": "2 33842  74.0335 239.3272 0046925 348.8425  11.1686 14.42658874881843"}}, "geometry": {"type": "Point", "coordinates": [33.67966428535842, 55.7171735892849]}}, {"type": "Feature", "properties": {"norad_id": 33844, "name": "COSMOS 2251 DEB", "group": "cosmos-2251-debris", "lat": 17.811877126068545, "lon": 76.59555902974864, "alt_km": 772.2384720771934, "timestamp": "2025-12-02T13:52:17.654101+00:00", "meta": {"OBJECT_NAME": "COSMOS 2251 DEB", "OBJECT_ID": "1993-036CM", "EPOCH": "2025-12-02T07:22:31.376640", "MEAN_MOTION": 14.33678185, "ECCENTRICITY": 0.00472346, "INCLINATION": 74.0669, "RA_OF_ASC_NODE": 71.8233, "ARG_OF_PERICENTER": 97.0911, "MEAN_ANOMALY": 325.6383, "EPHEMERIS_TYPE": 0, "CLASSIFICATION_TYPE": "U", "NORAD_CAT_ID": 33844, "ELEMENT_SET_NO": 999, "REV_AT_EPOCH": 87576, "BSTAR": 0.00056060603, "MEAN_MOTION_DOT": 1.549e-05, "MEAN_MOTION_DDOT": 0}, "tle": {"line1": "1 33844U 93036CM  25336.30730760  .00001549  00000+0  56061-3 0  9997", "line2": "2 33844  74.0669  71.8233 0047234  97.0911 325.6383 14.33678185875766"}}, "geometry": {"type": "Point", "coordinates": [76.59555902974864, 17.811877126068545]}}, {"type": "Feature", "properties": {"norad_id": 33848, "name": "COSMOS 2251 DEB", "group": "cosmos-2251-debris", "lat": -2.0621761954648883, "lon": -162.85997642033064, "alt_km": 756.3172145633425, "timestamp": "2025-12-02T13:52:17.654111+00:00", "meta": {"OBJECT_NAME": "COSMOS 2251 DEB", "OBJECT_ID": "1993-036CR", "EPOCH": "2025-12-02T05:00:09.281664", "MEAN_MOTION": 14.43950643, "ECCENTRICITY": 0.00409138, "INCLINATION": 74.0328, "RA_OF_ASC_NODE": 17.2364, "ARG_OF_PERICENTER": 76.7241, "MEAN_ANOMALY": 344.6723, "EPHEMERIS_TYPE": 0, "CLASSIFICATION_TYPE": "U", "NORAD_CAT_ID": 33848, "ELEMENT_SET_NO": 999, "REV_AT_EPOCH": 87679, "BSTAR": 0.0010727998, "MEAN_MOTION_DOT": 3.676e-05, "MEAN_MOTION_DDOT": 0}, "tle": {"line1": "1 33848U 93036CR  25336.20844076  .00003676  00000+0  10728-2 0  9998", "line2": "2 33848  74.0328  17.2364 0040913  76.7241 344.6723 14.43950643876794"}}, "geometry": {"type": "Point", "coordinates": [-162.85997642033064, -2.0621761954648883]}}, {"type": "Feature", "properties": {"norad_id": 33892, "name": "COSMOS 2251 DEB", "group": "cosmos-2251-debris", "lat": 36.16299742454732, "lon": -71.67168584367307, "alt_km": 731.3086027376003, "timestamp": "2025-12-02T13:52:17.654122+00:00", "meta": {"OBJECT_NAME": "COSMOS 2251 DEB", "OBJECT_ID": "1993-036CV", "EPOCH": "2025-12-01T20:54:32.612256", "MEAN_MOTION": 14.23259016, "ECCENTRICITY": 0.0113712, "INCLINATION": 73.8016, "RA_OF_ASC_NODE": 121.8836, "ARG_OF_PERICENTER": 155.1166, "MEAN_ANOMALY": 327.2466, "EPHEMERIS_TYPE": 0, "CLASSIFICATION_TYPE": "U", "NORAD_CAT_ID": 33892, "ELEMENT_SET_NO": 999, "REV_AT_EPOCH": 86800, "BSTAR": 0.0010866155, "MEAN_MOTION_DOT": 2.603e-05, "MEAN_MOTION_DDOT": 0}, "tle": {"line1": "1 33892U 93036CV  25335.87121079  .00002603  00000+0  10866-2 0  9992", "line2": "2 33892  73.8016 121.8836 0113712 155.1166 327.2466 14.23259016868006"}}, "geometry": {"type": "Point", "coordinates": [-71.67168584367307, 36.16299742454732]}}, {"type": "Feature", "properties": {"norad_id": 33894, "name": "COSMOS 2251 DEB", "group": "cosmos-2251-debris", "lat": 3.469889703531256, "lon": -176.20666174215236, "alt_km": 1303.2997792027563, "timestamp": "2025-12-02T13:52:17.654132+00:00", "meta": {"OBJECT_NAME": "COSMOS 2251 DEB", "OBJECT_ID": "1993-036CX", "EPOCH": "2025-12-02T03:49:58.594944", "MEAN_MOTION": 13.21246326, "ECCENTRICITY": 0.05793089, "INCLINATION": 73.7666, "RA_OF_ASC_NODE": 5.4523, "ARG_OF_PERICENTER": 286.2375, "MEAN_ANOMALY": 67.575, "EPHEMERIS_TYPE": 0, "CLASSIFICATION_TYPE": "U", "NORAD_CAT_ID": 33894, "ELEMENT_SET_NO": 999, "REV_AT_EPOCH": 80568, "BSTAR": 0.0022342216, "MEAN_MOTION_DOT": 2.199e-05, "MEAN_MOTION_DDOT": 0}, "tle": {"line1": "1 33894U 93036CX  25336.15970596  .00002199  00000+0  22342-2 0  9994", "line2": "2 33894  73.7666   5.4523 0579308 286.2375  67.5750 13.21246326805685"}}, "geometry": {"type": "Point", "coordinates": [-176.20666174215236, 3.469889703531256]}}, {"type": "Feature", "properties": {"norad_id": 33896, "name": "COSMOS 2251 DEB", "group": "cosmos-2251-debris", "lat": 7.867556181900606, "lon": 177.43805325518275, "alt_km": 742.8067461731998, "timestamp": "2025-12-02T13:52:17.654143+00:00", "meta": {"OBJECT_NAME": "COSMOS 2251 DEB", "OBJECT_ID": "1993-036CZ", "EPOCH": "2025-12-01T23:10:45.067296", "MEAN_MOTION": 14.18995904, "ECCENTRICITY": 0.01259889, "INCLINATION": 73.7658, "RA_OF_ASC_NODE": 176.2416, "ARG_OF_PERICENTER": 353.6454, "MEAN_ANOMALY": 128.2182, "EPHEMERIS_TYPE": 0, "CLASSIFICATION_TYPE": "U", "NORAD_CAT_ID": 33896, "ELEMENT_SET_NO": 999, "REV_AT_EPOCH": 86587, "BSTAR": 0.00066116482, "MEAN_MOTION_DOT": 1.466e-05, "MEAN_MOTION_DDOT": 0}, "tle": {"line1": "1 33896U 93036CZ  25335.96579939  .00001466  00000+0  66116-3 0  9994", "line2": "2 33896  73.7658 176.2416 0125988 353.6454 128.2182 14.18995904865875"}}, "geometry": {"type": "Point", "coordinates": [177.43805325518275, 7.867556181900606]}}, {"type": "Feature", "properties": {"norad_id": 33899, "name": "COSMOS 2251 DEB", "group": "cosmos-2251-debris", "lat": -64.3139208550627, "lon": 68.65220095642317, "alt_km": 717.0257253333339, "timestamp": "2025-12-02T13:52:17.654153+00:00", "meta": {"OBJECT_NAME": "COSMOS 2251 DEB", "OBJECT_ID": "1993-036DC", "EPOCH": "2025-12-02T01:35:55.277664", "MEAN_MOTION": 14.60997738, "ECCENTRICITY": 0.00579241, "INCLINATION": 74.0525, "RA_OF_ASC_NODE": 106.1063, "ARG_OF_PERICENTER": 171.6465, "MEAN_ANOMALY": 309.7222, "EPHEMERIS_TYPE": 0, "CLASSIFICATION_TYPE": "U", "NORAD_CAT_ID": 33899, "ELEMENT_SET_NO": 999, "REV_AT_EPOCH": 88683, "BSTAR": 0.0013596808, "MEAN_MOTION_DOT": 6.805e-05, "MEAN_MOTION_DDOT": 0}, "tle": {"line1": "1 33899U 93036DC  25336.06661201  .00006805  00000+0  13597-2 0  9999", "line2": "2 33899  74.0525 106.1063 0057924 171.6465 309.7222 14.60997738886833"}}, "geometry": {"type": "Point", "coordinates": [68.65220095642317, -64.3139208550627]}}, {"type": "Feature", "properties": {"norad_id": 33900, "name": "COSMOS 2251 DEB", "group": "cosmos-2251-debris", "lat": 61.80766352061556, "lon": 51.540792437867, "alt_km": 702.3364344499187, "timestamp": "2025-12-02T13:52:17.654163+00:00", "meta": {"OBJECT_NAME": "COSMOS 2251 DEB", "OBJECT_ID": "1993-036DD", "EPOCH": "2025-12-02T05:39:53.082720", "MEAN_MOTION": 14.58283778, "ECCENTRICITY": 0.00474702, "INCLINATION": 74.0201, "RA_OF_ASC_NODE": 19.8755, "ARG_OF_PERICENTER": 174.8042, "MEAN_ANOMALY": 257.7784, "EPHEMERIS_TYPE": 0, "CLASSIFICATION_TYPE": "U", "NORAD_CAT_ID": 33900, "ELEMENT_SET_NO": 999, "REV_AT_EPOCH": 88883, "BSTAR": 0.00055245251, "MEAN_MOTION_DOT": 2.564e-05, "MEAN_MOTION_DDOT": 0}, "tle": {"line1": "1 33900U 93036DD  25336.23603105  .00002564  00000+0  55245-3 0  9995", "line2": "2 33900  74.0201  19.8755 0047470 174.8042 257.7784 14.58283778888832"}}, "geometry": {"type": "Point", "coordinates": [51.540792437867, 61.80766352061556]}}, {"type": "Feature", "properties": {"norad_id": 33901, "name": "COSMOS 2251 DEB", "group": "cosmos-2251-debris", "lat": 42.820806132035315, "lon": -124.88441723823037, "alt_km": 510.8662920493134, "timestamp": "2025-12-02T13:52:17.654173+00:00", "meta": {"OBJECT_NAME": "COSMOS 2251 DEB", "OBJECT_ID": "1993-036DE", "EPOCH": "2025-12-01T23:00:07.498368", "MEAN_MOTION": 15.13884759, "ECCENTRICITY": 0.00356641, "INCLINATION": 73.7717, "RA_OF_ASC_NODE": 72.0813, "ARG_OF_PERICENTER": 204.1013, "MEAN_ANOMALY": 155.8512, "EPHEMERIS_TYPE": 0, "CLASSIFICATION_TYPE": "U", "NORAD_CAT_ID": 33901, "ELEMENT_SET_NO": 999, "REV_AT_EPOCH": 89350, "BSTAR": 0.0040661776, "MEAN_MOTION_DOT": 0.00075495, "MEAN_MOTION_DDOT": 0}, "tle": {"line1": "1 33901U 93036DE  25335.95842012  .00075495  00000+0  40662-2 0  9995", "line2": "2 33901  73.7717  72.0813 0035664 204.1013 155.8512 15.13884759893509"}}, "geometry": {"type": "Point", "coordinates": [-124.88441723823037, 42.820806132035315]}}]}